ERS-1                   
1 21574U 91050A   26067.51564445  .00000438  00000+0  15465-3 0  9997
2 21574  98.7884  85.7208 0031553 203.9802 155.9917 14.39448449815568
ARIANE 40 R/B           
1 21610U 91050F   26067.15331559  .00000416  00000+0  13694-3 0  9994
2 21610  98.2014 119.4473 0004353  84.5937 275.5750 14.42892482818772
INTERCOSMOS 25          
1 21819U 91086A   26067.41942807  .00001745  00000+0  33514-3 0  9996
2 21819  82.6047 310.7767 1486988 119.6668 256.0747 12.11995335496539
SL-8 R/B                
1 21876U 92008B   26067.55893251  .00000017  00000+0  13660-5 0  9990
2 21876  82.9225 268.6197 0035475 136.4122 287.6706 13.75969835709262
SL-8 R/B                
1 21938U 92020B   26067.51810403  .00000099  00000+0  86883-4 0  9993
2 21938  82.9338 154.6312 0027719 302.2305  67.9602 13.75549406700978
USA 81                  
1 21949U 92023A   26067.54108217  .00000224  00000+0  75510-4 0  9999
2 21949  85.0087 132.1038 0002493  78.9884 281.1589 14.32367623 94627
COSMOS 2219             
1 22219U 92076A   26067.31845432  .00000183  00000+0  12056-3 0  9999
2 22219  71.0631  20.9334 0019082 208.9322 151.0745 14.14092064718182
SL-16 R/B               
1 22220U 92076B   26067.49862112 -.00000144  00000+0 -47928-4 0  9990
2 22220  71.0007 190.8821 0010478  98.5943 333.9808 14.16859995721665
COSMOS 2221             
1 22236U 92080A   26067.09917348  .00002319  00000+0  20322-3 0  9992
2 22236  82.5009 280.6049 0013898 192.5803 167.5074 14.96194104780551
SL-16 R/B               
1 22285U 92093B   26067.25542576 -.00000204  00000+0 -80217-4 0  9998
2 22285  71.0241   7.2762 0006376 295.1908  64.8553 14.15448322712955
COSMOS 2228             
1 22286U 92094A   26067.51759346  .00002886  00000+0  24684-3 0  9995
2 22286  82.5155 238.4325 0016830 308.9598  51.0124 14.97183619775882
SL-16 R/B               
1 22566U 93016B   26067.50774364  .00000186  00000+0  11997-3 0  9991
2 22566  71.0069 217.6628 0011686 315.7869  44.2319 14.15308379702002
