CCSDS_OMM_VERS = 2.0
CREATION_DATE  = 
ORIGINATOR     = 

OBJECT_NAME    = ERS-1
OBJECT_ID      = 1991-050A
CENTER_NAME    = EARTH
REF_FRAME      = TEME
TIME_SYSTEM    = UTC
MEAN_ELEMENT_THEORY = SGP/SGP4

EPOCH          = 2026-03-08T12:22:31.680480
MEAN_MOTION    = 14.39448449
ECCENTRICITY   = .0031553
INCLINATION    = 98.7884
RA_OF_ASC_NODE = 85.7208
ARG_OF_PERICENTER = 203.9802
MEAN_ANOMALY   = 155.9917

EPHEMERIS_TYPE = 0
CLASSIFICATION_TYPE = U
NORAD_CAT_ID   = 21574
ELEMENT_SET_NO = 999
REV_AT_EPOCH   = 81556
BSTAR          = .15465E-3
MEAN_MOTION_DOT = .438E-5
MEAN_MOTION_DDOT = 0

CCSDS_OMM_VERS = 2.0
CREATION_DATE  = 
ORIGINATOR     = 

OBJECT_NAME    = ARIANE 40 R/B
OBJECT_ID      = 1991-050F
CENTER_NAME    = EARTH
REF_FRAME      = TEME
TIME_SYSTEM    = UTC
MEAN_ELEMENT_THEORY = SGP/SGP4

EPOCH          = 2026-03-08T03:40:46.466976
MEAN_MOTION    = 14.42892482
ECCENTRICITY   = .0004353
INCLINATION    = 98.2014
RA_OF_ASC_NODE = 119.4473
ARG_OF_PERICENTER = 84.5937
MEAN_ANOMALY   = 275.5750

EPHEMERIS_TYPE = 0
CLASSIFICATION_TYPE = U
NORAD_CAT_ID   = 21610
ELEMENT_SET_NO = 999
REV_AT_EPOCH   = 81877
BSTAR          = .13694E-3
MEAN_MOTION_DOT = .416E-5
MEAN_MOTION_DDOT = 0

CCSDS_OMM_VERS = 2.0
CREATION_DATE  = 
ORIGINATOR     = 

OBJECT_NAME    = INTERCOSMOS 25
OBJECT_ID      = 1991-086A
CENTER_NAME    = EARTH
REF_FRAME      = TEME
TIME_SYSTEM    = UTC
MEAN_ELEMENT_THEORY = SGP/SGP4

EPOCH          = 2026-03-08T10:03:58.585248
MEAN_MOTION    = 12.11995335
ECCENTRICITY   = .1486988
INCLINATION    = 82.6047
RA_OF_ASC_NODE = 310.7767
ARG_OF_PERICENTER = 119.6668
MEAN_ANOMALY   = 256.0747

EPHEMERIS_TYPE = 0
CLASSIFICATION_TYPE = U
NORAD_CAT_ID   = 21819
ELEMENT_SET_NO = 999
REV_AT_EPOCH   = 49653
BSTAR          = .33514E-3
MEAN_MOTION_DOT = .1745E-4
MEAN_MOTION_DDOT = 0

CCSDS_OMM_VERS = 2.0
CREATION_DATE  = 
ORIGINATOR     = 

OBJECT_NAME    = SL-8 R/B
OBJECT_ID      = 1992-008B
CENTER_NAME    = EARTH
REF_FRAME      = TEME
TIME_SYSTEM    = UTC
MEAN_ELEMENT_THEORY = SGP/SGP4

EPOCH          = 2026-03-08T13:24:51.768864
MEAN_MOTION    = 13.75969835
ECCENTRICITY   = .0035475
INCLINATION    = 82.9225
RA_OF_ASC_NODE = 268.6197
ARG_OF_PERICENTER = 136.4122
MEAN_ANOMALY   = 287.6706

EPHEMERIS_TYPE = 0
CLASSIFICATION_TYPE = U
NORAD_CAT_ID   = 21876
ELEMENT_SET_NO = 999
REV_AT_EPOCH   = 70926
BSTAR          = .1366E-5
MEAN_MOTION_DOT = .17E-6
MEAN_MOTION_DDOT = 0

CCSDS_OMM_VERS = 2.0
CREATION_DATE  = 
ORIGINATOR     = 

OBJECT_NAME    = SL-8 R/B
OBJECT_ID      = 1992-020B
CENTER_NAME    = EARTH
REF_FRAME      = TEME
TIME_SYSTEM    = UTC
MEAN_ELEMENT_THEORY = SGP/SGP4

EPOCH          = 2026-03-08T12:26:04.188192
MEAN_MOTION    = 13.75549406
ECCENTRICITY   = .0027719
INCLINATION    = 82.9338
RA_OF_ASC_NODE = 154.6312
ARG_OF_PERICENTER = 302.2305
MEAN_ANOMALY   = 67.9602

EPHEMERIS_TYPE = 0
CLASSIFICATION_TYPE = U
NORAD_CAT_ID   = 21938
ELEMENT_SET_NO = 999
REV_AT_EPOCH   = 70097
BSTAR          = .86883E-4
MEAN_MOTION_DOT = .99E-6
MEAN_MOTION_DDOT = 0

CCSDS_OMM_VERS = 2.0
CREATION_DATE  = 
ORIGINATOR     = 

OBJECT_NAME    = USA 81
OBJECT_ID      = 1992-023A
CENTER_NAME    = EARTH
REF_FRAME      = TEME
TIME_SYSTEM    = UTC
MEAN_ELEMENT_THEORY = SGP/SGP4

EPOCH          = 2026-03-08T12:59:09.499488
MEAN_MOTION    = 14.32367623
ECCENTRICITY   = .0002493
INCLINATION    = 85.0087
RA_OF_ASC_NODE = 132.1038
ARG_OF_PERICENTER = 78.9884
MEAN_ANOMALY   = 281.1589

EPHEMERIS_TYPE = 0
CLASSIFICATION_TYPE = U
NORAD_CAT_ID   = 21949
ELEMENT_SET_NO = 999
REV_AT_EPOCH   = 9462
BSTAR          = .7551E-4
MEAN_MOTION_DOT = .224E-5
MEAN_MOTION_DDOT = 0

CCSDS_OMM_VERS = 2.0
CREATION_DATE  = 
ORIGINATOR     = 

OBJECT_NAME    = COSMOS 2219
OBJECT_ID      = 1992-076A
CENTER_NAME    = EARTH
REF_FRAME      = TEME
TIME_SYSTEM    = UTC
MEAN_ELEMENT_THEORY = SGP/SGP4

EPOCH          = 2026-03-08T07:38:34.453248
MEAN_MOTION    = 14.14092064
ECCENTRICITY   = .0019082
INCLINATION    = 71.0631
RA_OF_ASC_NODE = 20.9334
ARG_OF_PERICENTER = 208.9322
MEAN_ANOMALY   = 151.0745

EPHEMERIS_TYPE = 0
CLASSIFICATION_TYPE = U
NORAD_CAT_ID   = 22219
ELEMENT_SET_NO = 999
REV_AT_EPOCH   = 71818
BSTAR          = .12056E-3
MEAN_MOTION_DOT = .183E-5
MEAN_MOTION_DDOT = 0

CCSDS_OMM_VERS = 2.0
CREATION_DATE  = 
ORIGINATOR     = 

OBJECT_NAME    = SL-16 R/B
OBJECT_ID      = 1992-076B
CENTER_NAME    = EARTH
REF_FRAME      = TEME
TIME_SYSTEM    = UTC
MEAN_ELEMENT_THEORY = SGP/SGP4

EPOCH          = 2026-03-08T11:58:00.864768
MEAN_MOTION    = 14.16859995
ECCENTRICITY   = .0010478
INCLINATION    = 71.0007
RA_OF_ASC_NODE = 190.8821
ARG_OF_PERICENTER = 98.5943
MEAN_ANOMALY   = 333.9808

EPHEMERIS_TYPE = 0
CLASSIFICATION_TYPE = U
NORAD_CAT_ID   = 22220
ELEMENT_SET_NO = 999
REV_AT_EPOCH   = 72166
BSTAR          = -.47928E-4
MEAN_MOTION_DOT = -.144E-5
MEAN_MOTION_DDOT = 0

CCSDS_OMM_VERS = 2.0
CREATION_DATE  = 
ORIGINATOR     = 

OBJECT_NAME    = COSMOS 2221
OBJECT_ID      = 1992-080A
CENTER_NAME    = EARTH
REF_FRAME      = TEME
TIME_SYSTEM    = UTC
MEAN_ELEMENT_THEORY = SGP/SGP4

EPOCH          = 2026-03-08T02:22:48.588672
MEAN_MOTION    = 14.96194104
ECCENTRICITY   = .0013898
INCLINATION    = 82.5009
RA_OF_ASC_NODE = 280.6049
ARG_OF_PERICENTER = 192.5803
MEAN_ANOMALY   = 167.5074

EPHEMERIS_TYPE = 0
CLASSIFICATION_TYPE = U
NORAD_CAT_ID   = 22236
ELEMENT_SET_NO = 999
REV_AT_EPOCH   = 78055
BSTAR          = .20322E-3
MEAN_MOTION_DOT = .2319E-4
MEAN_MOTION_DDOT = 0

CCSDS_OMM_VERS = 2.0
CREATION_DATE  = 
ORIGINATOR     = 

OBJECT_NAME    = SL-16 R/B
OBJECT_ID      = 1992-093B
CENTER_NAME    = EARTH
REF_FRAME      = TEME
TIME_SYSTEM    = UTC
MEAN_ELEMENT_THEORY = SGP/SGP4

EPOCH          = 2026-03-08T06:07:48.785664
MEAN_MOTION    = 14.15448322
ECCENTRICITY   = .0006376
INCLINATION    = 71.0241
RA_OF_ASC_NODE = 7.2762
ARG_OF_PERICENTER = 295.1908
MEAN_ANOMALY   = 64.8553

EPHEMERIS_TYPE = 0
CLASSIFICATION_TYPE = U
NORAD_CAT_ID   = 22285
ELEMENT_SET_NO = 999
REV_AT_EPOCH   = 71295
BSTAR          = -.80217E-4
MEAN_MOTION_DOT = -.204E-5
MEAN_MOTION_DDOT = 0

CCSDS_OMM_VERS = 2.0
CREATION_DATE  = 
ORIGINATOR     = 

OBJECT_NAME    = COSMOS 2228
OBJECT_ID      = 1992-094A
CENTER_NAME    = EARTH
REF_FRAME      = TEME
TIME_SYSTEM    = UTC
MEAN_ELEMENT_THEORY = SGP/SGP4

EPOCH          = 2026-03-08T12:25:20.074944
MEAN_MOTION    = 14.97183619
ECCENTRICITY   = .001683
INCLINATION    = 82.5155
RA_OF_ASC_NODE = 238.4325
ARG_OF_PERICENTER = 308.9598
MEAN_ANOMALY   = 51.0124

EPHEMERIS_TYPE = 0
CLASSIFICATION_TYPE = U
NORAD_CAT_ID   = 22286
ELEMENT_SET_NO = 999
REV_AT_EPOCH   = 77588
BSTAR          = .24684E-3
MEAN_MOTION_DOT = .2886E-4
MEAN_MOTION_DDOT = 0

CCSDS_OMM_VERS = 2.0
CREATION_DATE  = 
ORIGINATOR     = 

OBJECT_NAME    = SL-16 R/B
OBJECT_ID      = 1993-016B
CENTER_NAME    = EARTH
REF_FRAME      = TEME
TIME_SYSTEM    = UTC
MEAN_ELEMENT_THEORY = SGP/SGP4

EPOCH          = 2026-03-08T12:11:09.050496
MEAN_MOTION    = 14.15308379
ECCENTRICITY   = .0011686
INCLINATION    = 71.0069
RA_OF_ASC_NODE = 217.6628
ARG_OF_PERICENTER = 315.7869
MEAN_ANOMALY   = 44.2319

EPHEMERIS_TYPE = 0
CLASSIFICATION_TYPE = U
NORAD_CAT_ID   = 22566
ELEMENT_SET_NO = 999
REV_AT_EPOCH   = 70200
BSTAR          = .11997E-3
MEAN_MOTION_DOT = .186E-5
MEAN_MOTION_DDOT = 0

